{
    "links": {
        "self": "http://www.neowsapp.com/rest/v1/neo/3580322?api_key=iIulBulltgU6a56xZRHN4H3l9WmuAYTsLGpBGhQ2"
    },
    "id": "3580322",
    "neo_reference_id": "3580322",
    "name": "(2011 SK189)",
    "designation": "2011 SK189",
    "nasa_jpl_url": "http://ssd.jpl.nasa.gov/sbdb.cgi?sstr=3580322",
    "absolute_magnitude_h": 23.8,
    "estimated_diameter": {
        "kilometers": {
            "estimated_diameter_min": 0.046190746,
            "estimated_diameter_max": 0.1032856481
        },
        "meters": {
            "estimated_diameter_min": 46.1907460282,
            "estimated_diameter_max": 103.2856480504
        },
        "miles": {
            "estimated_diameter_min": 0.0287015901,
            "estimated_diameter_max": 0.0641787064
        },
        "feet": {
            "estimated_diameter_min": 151.544447199,
            "estimated_diameter_max": 338.8636855496
        }
    },
    "is_potentially_hazardous_asteroid": false,
    "close_approach_data": [
        {
            "close_approach_date": "2011-09-28",
            "close_approach_date_full": "2011-Sep-28 13:41",
            "epoch_date_close_approach": 1317217260000,
            "relative_velocity": {
                "kilometers_per_second": "15.3960392053",
                "kilometers_per_hour": "55425.741139211",
                "miles_per_hour": "34439.400098417"
            },
            "miss_distance": {
                "astronomical": "0.1222349364",
                "lunar": "47.5493902596",
                "kilometers": "18286086.125025468",
                "miles": "11362447.0344207384"
            },
            "orbiting_body": "Earth"
        }
    ],
    "orbital_data": {
        "orbit_id": "5",
        "orbit_determination_date": "2017-04-06 08:52:36",
        "first_observation_date": "2011-09-28",
        "last_observation_date": "2011-10-02",
        "data_arc_in_days": 4,
        "observations_used": 21,
        "orbit_uncertainty": "9",
        "minimum_orbit_intersection": ".11144",
        "jupiter_tisserand_invariant": "3.931",
        "epoch_osculation": "2455833.5",
        "eccentricity": ".3638180916546622",
        "semi_major_axis": "1.748175451325461",
        "inclination": "27.82676652688727",
        "ascending_node_longitude": "7.356154296246205",
        "orbital_period": "844.2594936338255",
        "perihelion_distance": "1.112157594746704",
        "perihelion_argument": "355.2868796760786",
        "aphelion_distance": "2.384193307904218",
        "perihelion_time": "2455827.898955192909",
        "mean_anomaly": "2.388336934031929",
        "mean_motion": ".4264091819098219",
        "equinox": "J2000",
        "orbit_class": {
            "orbit_class_type": "AMO",
            "orbit_class_description": "Near-Earth asteroid orbits similar to that of 1221 Amor",
            "orbit_class_range": "1.017 AU < q (perihelion) < 1.3 AU"
        }
    },
    "is_sentry_object": false
}